[{"OBJECT_NAME":"STARLINK-5132","OBJECT_ID":"2022-125AV","EPOCH":"2026-03-09T15:55:34.055904","MEAN_MOTION":15.08848066,"ECCENTRICITY":0.00012321,"INCLINATION":53.2157,"RA_OF_ASC_NODE":213.8839,"ARG_OF_PERICENTER":76.994,"MEAN_ANOMALY":283.119,"EPHEMERIS_TYPE":0,"CLASSIFICATION_TYPE":"U","NORAD_CAT_ID":54007,"ELEMENT_SET_NO":999,"REV_AT_EPOCH":18946,"BSTAR":5.5956097e-5,"MEAN_MOTION_DOT":6.03e-6,"MEAN_MOTION_DDOT":0},{"OBJECT_NAME":"METEOR 2-5 DEB","OBJECT_ID":"1979-095D","EPOCH":"2026-03-07T02:20:18.720096","MEAN_MOTION":15.07655153,"ECCENTRICITY":0.00106351,"INCLINATION":81.1653,"RA_OF_ASC_NODE":357.8549,"ARG_OF_PERICENTER":34.5561,"MEAN_ANOMALY":325.6353,"EPHEMERIS_TYPE":0,"CLASSIFICATION_TYPE":"U","NORAD_CAT_ID":28555,"ELEMENT_SET_NO":999,"REV_AT_EPOCH":23235,"BSTAR":0.011673296,"MEAN_MOTION_DOT":0.00182479,"MEAN_MOTION_DDOT":0}]
